{
  "type": "FeatureCollection",
  "features": [
    {
      "type": "Feature",
      "properties": {
        "norad_id": 35616,
        "name": "IRIDIUM 33 DEB",
        "group": "iridium-33-debris",
        "lat": 13.331168594621506,
        "lon": 161.71966486954727,
        "alt_km": 617.3730893059183,
        "timestamp": "2025-12-19T16:54:44.647699+00:00",
        "meta_object_name": "IRIDIUM 33 DEB",
        "meta_object_id": "1997-051QN",
        "meta_epoch": "2025-12-19T06:26:26.768832",
        "meta_mean_motion": 14.81969913,
        "meta_eccentricity": 0.00110786,
        "meta_inclination": 86.3543,
        "meta_ra_of_asc_node": 342.7845,
        "meta_arg_of_pericenter": 141.4908,
        "meta_mean_anomaly": 218.7107,
        "meta_ephemeris_type": 0,
        "meta_classification_type": "U",
        "meta_norad_cat_id": 35616,
        "meta_element_set_no": 999,
        "meta_rev_at_epoch": 87671,
        "meta_bstar": 0.0011657498,
        "meta_mean_motion_dot": 9.278e-05,
        "meta_mean_motion_ddot": 0,
        "tle_line1": "1 35616U 97051QN  25353.26836538  .00009278  00000+0  11657-2 0  9999",
        "tle_line2": "2 35616  86.3543 342.7845 0011078 141.4908 218.7107 14.81969913876715"
      },
      "geometry": {
        "type": "Point",
        "coordinates": [
          161.71966486954727,
          13.331168594621506
        ]
      }
    },
    {
      "type": "Feature",
      "properties": {
        "norad_id": 35618,
        "name": "IRIDIUM 33 DEB",
        "group": "iridium-33-debris",
        "lat": -86.15264874049608,
        "lon": -81.54403794555536,
        "alt_km": 724.2257711905531,
        "timestamp": "2025-12-19T16:54:44.647710+00:00",
        "meta_object_name": "IRIDIUM 33 DEB",
        "meta_object_id": "1997-051QQ",
        "meta_epoch": "2025-12-13T19:06:39.662496",
        "meta_mean_motion": 14.52305973,
        "meta_eccentricity": 0.00288889,
        "meta_inclination": 86.3427,
        "meta_ra_of_asc_node": 353.0427,
        "meta_arg_of_pericenter": 17.6332,
        "meta_mean_anomaly": 342.5869,
        "meta_ephemeris_type": 0,
        "meta_classification_type": "U",
        "meta_norad_cat_id": 35618,
        "meta_element_set_no": 999,
        "meta_rev_at_epoch": 65409,
        "meta_bstar": 0.0005678553,
        "meta_mean_motion_dot": 2.341e-05,
        "meta_mean_motion_ddot": 0,
        "tle_line1": "1 35618U 97051QQ  25347.79629239  .00002341  00000+0  56786-3 0  9997",
        "tle_line2": "2 35618  86.3427 353.0427 0028888  17.6332 342.5869 14.52305973654095"
      },
      "geometry": {
        "type": "Point",
        "coordinates": [
          -81.54403794555536,
          -86.15264874049608
        ]
      }
    },
    {
      "type": "Feature",
      "properties": {
        "norad_id": 35620,
        "name": "IRIDIUM 33 DEB",
        "group": "iridium-33-debris",
        "lat": -80.03162918324855,
        "lon": 55.56133340743899,
        "alt_km": 680.9265725164814,
        "timestamp": "2025-12-19T16:54:44.647720+00:00",
        "meta_object_name": "IRIDIUM 33 DEB",
        "meta_object_id": "1997-051QS",
        "meta_epoch": "2025-12-18T07:58:30.597312",
        "meta_mean_motion": 14.38231155,
        "meta_eccentricity": 0.01396071,
        "meta_inclination": 86.3909,
        "meta_ra_of_asc_node": 215.0948,
        "meta_arg_of_pericenter": 240.37,
        "meta_mean_anomaly": 118.3533,
        "meta_ephemeris_type": 0,
        "meta_classification_type": "U",
        "meta_norad_cat_id": 35620,
        "meta_element_set_no": 999,
        "meta_rev_at_epoch": 60046,
        "meta_bstar": 0.0042608437,
        "meta_mean_motion_dot": 0.00014532,
        "meta_mean_motion_ddot": 0,
        "tle_line1": "1 35620U 97051QS  25352.33229858  .00014532  00000+0  42608-2 0  9991",
        "tle_line2": "2 35620  86.3909 215.0948 0139607 240.3700 118.3533 14.38231155600467"
      },
      "geometry": {
        "type": "Point",
        "coordinates": [
          55.56133340743899,
          -80.03162918324855
        ]
      }
    },
    {
      "type": "Feature",
      "properties": {
        "norad_id": 35622,
        "name": "IRIDIUM 33 DEB",
        "group": "iridium-33-debris",
        "lat": -41.207004679473606,
        "lon": 83.50476955759642,
        "alt_km": 556.1545745083095,
        "timestamp": "2025-12-19T16:54:44.647737+00:00",
        "meta_object_name": "IRIDIUM 33 DEB",
        "meta_object_id": "1997-051QU",
        "meta_epoch": "2025-12-19T05:20:54.669408",
        "meta_mean_motion": 15.05391497,
        "meta_eccentricity": 0.00045227,
        "meta_inclination": 86.2027,
        "meta_ra_of_asc_node": 260.4082,
        "meta_arg_of_pericenter": 299.3181,
        "meta_mean_anomaly": 192.4503,
        "meta_ephemeris_type": 0,
        "meta_classification_type": "U",
        "meta_norad_cat_id": 35622,
        "meta_element_set_no": 999,
        "meta_rev_at_epoch": 87457,
        "meta_bstar": 0.0026049351,
        "meta_mean_motion_dot": 0.0003752,
        "meta_mean_motion_ddot": 0,
        "tle_line1": "1 35622U 97051QU  25353.22285497  .00037520  00000+0  26049-2 0  9996",
        "tle_line2": "2 35622  86.2027 260.4082 0004522 299.3181 192.4503 15.05391497874572"
      },
      "geometry": {
        "type": "Point",
        "coordinates": [
          83.50476955759642,
          -41.207004679473606
        ]
      }
    },
    {
      "type": "Feature",
      "properties": {
        "norad_id": 35628,
        "name": "IRIDIUM 33 DEB",
        "group": "iridium-33-debris",
        "lat": -12.259267477904565,
        "lon": -173.23733035906199,
        "alt_km": 677.0060091692676,
        "timestamp": "2025-12-19T16:54:44.647758+00:00",
        "meta_object_name": "IRIDIUM 33 DEB",
        "meta_object_id": "1997-051RA",
        "meta_epoch": "2025-12-18T07:18:45.213408",
        "meta_mean_motion": 14.6766102,
        "meta_eccentricity": 0.00098417,
        "meta_inclination": 86.3567,
        "meta_ra_of_asc_node": 6.5937,
        "meta_arg_of_pericenter": 321.9777,
        "meta_mean_anomaly": 38.0742,
        "meta_ephemeris_type": 0,
        "meta_classification_type": "U",
        "meta_norad_cat_id": 35628,
        "meta_element_set_no": 999,
        "meta_rev_at_epoch": 86528,
        "meta_bstar": 0.0011340632,
        "meta_mean_motion_dot": 6.475e-05,
        "meta_mean_motion_ddot": 0,
        "tle_line1": "1 35628U 97051RA  25352.30468997  .00006475  00000+0  11341-2 0  9992",
        "tle_line2": "2 35628  86.3567   6.5937 0009841 321.9777  38.0742 14.67661020865285"
      },
      "geometry": {
        "type": "Point",
        "coordinates": [
          -173.23733035906199,
          -12.259267477904565
        ]
      }
    },
    {
      "type": "Feature",
      "properties": {
        "norad_id": 35631,
        "name": "IRIDIUM 33 DEB",
        "group": "iridium-33-debris",
        "lat": -60.18824948476069,
        "lon": 11.610682443685928,
        "alt_km": 754.1179590411539,
        "timestamp": "2025-12-19T16:54:44.647779+00:00",
        "meta_object_name": "IRIDIUM 33 DEB",
        "meta_object_id": "1997-051RD",
        "meta_epoch": "2025-12-17T02:23:33.513216",
        "meta_mean_motion": 14.47323174,
        "meta_eccentricity": 0.00191499,
        "meta_inclination": 86.3669,
        "meta_ra_of_asc_node": 19.0985,
        "meta_arg_of_pericenter": 104.9158,
        "meta_mean_anomaly": 310.5558,
        "meta_ephemeris_type": 0,
        "meta_classification_type": "U",
        "meta_norad_cat_id": 35631,
        "meta_element_set_no": 999,
        "meta_rev_at_epoch": 87260,
        "meta_bstar": 0.00028519596,
        "meta_mean_motion_dot": 1.066e-05,
        "meta_mean_motion_ddot": 0,
        "tle_line1": "1 35631U 97051RD  25351.09969344  .00001066  00000+0  28520-3 0  9992",
        "tle_line2": "2 35631  86.3669  19.0985 0019149 104.9158 310.5558 14.47323174872608"
      },
      "geometry": {
        "type": "Point",
        "coordinates": [
          11.610682443685928,
          -60.18824948476069
        ]
      }
    },
    {
      "type": "Feature",
      "properties": {
        "norad_id": 35680,
        "name": "IRIDIUM 33 DEB",
        "group": "iridium-33-debris",
        "lat": -27.230419184427255,
        "lon": 16.42880780905616,
        "alt_km": 801.0103923763681,
        "timestamp": "2025-12-19T16:54:44.647797+00:00",
        "meta_object_name": "IRIDIUM 33 DEB",
        "meta_object_id": "1997-051RJ",
        "meta_epoch": "2025-12-17T20:16:19.922592",
        "meta_mean_motion": 14.21000805,
        "meta_eccentricity": 0.01505036,
        "meta_inclination": 86.1025,
        "meta_ra_of_asc_node": 19.2625,
        "meta_arg_of_pericenter": 262.1515,
        "meta_mean_anomaly": 279.7609,
        "meta_ephemeris_type": 0,
        "meta_classification_type": "U",
        "meta_norad_cat_id": 35680,
        "meta_element_set_no": 999,
        "meta_rev_at_epoch": 60773,
        "meta_bstar": 0.0028027984,
        "meta_mean_motion_dot": 6.829e-05,
        "meta_mean_motion_ddot": 0,
        "tle_line1": "1 35680U 97051RJ  25351.84467503  .00006829  00000+0  28028-2 0  9993",
        "tle_line2": "2 35680  86.1025  19.2625 0150503 262.1515 279.7609 14.21000805607731"
      },
      "geometry": {
        "type": "Point",
        "coordinates": [
          16.42880780905616,
          -27.230419184427255
        ]
      }
    }
  ]
}